STARLINK-5194           
1 54186U 22141AF  24001.22240452 -.00001676  00000+0 -87294-4 0  9997
2 54186  53.2182 338.7762 0001451  93.7327 266.3831 15.08824544 65455
STARLINK-5240           
1 54187U 22141AG  24001.25454691 -.00000066  00000+0  13952-4 0  9994
2 54187  53.2183 348.2581 0001681 101.5790 258.5391 15.08840847 65323
STARLINK-5238           
1 54188U 22141AH  24001.21870708  .00000486  00000+0  48651-4 0  9991
2 54188  53.2182 338.7516 0001445 104.8482 255.2670 15.08838970 65459
STARLINK-5182           
1 54189U 22141AJ  24001.25181677 -.00000210  00000+0  49119-5 0  9993
2 54189  53.2183 348.2105 0001652 102.8689 257.2488 15.08838765 65325
STARLINK-5281           
1 54190U 22141AK  24001.34749771 -.00000932  00000+0 -40468-4 0  9999
2 54190  53.2182 338.1348 0001556 110.4735 249.6424 15.08848130 65471
STARLINK-4619           
1 54191U 22141AL  24001.15983756 -.00001024  00000+0 -46246-4 0  9995
2 54191  53.2182 339.0996 0001397  92.8365 267.2787 15.08841632 65441
STARLINK-5268           
1 54192U 22141AM  24001.50937165  .00001023  00000+0  82324-4 0  9992
2 54192  53.2180 337.0196 0001439  90.4588 269.6569 15.08844395 65508
STARLINK-5263           
1 54193U 22141AN  24001.20764686 -.00000358  00000+0 -43691-5 0  9993
2 54193  53.2200 338.6895 0001536  98.1662 261.9504 15.08849135 65456
STARLINK-5271           
1 54194U 22141AP  24001.20027730  .00000834  00000+0  70492-4 0  9991
2 54194  53.2182 338.6405 0001440  90.6422 269.4735 15.08849405 65457
STARLINK-5258           
1 54195U 22141AQ  24001.34381465  .00000107  00000+0  24804-4 0  9994
2 54195  53.2198 338.1115 0001808 106.5659 253.5532 15.08841549 65477
STARLINK-5237           
1 54196U 22141AR  24001.32539409  .00000696  00000+0  61809-4 0  9995
2 54196  53.2181 337.9959 0001606  88.4989 271.6188 15.08842143 65472
STARLINK-5234           
1 54197U 22141AS  24001.31292906  .00000726  00000+0  61139-4 0  9993
2 54197  53.2186 337.9340 0001506  80.2999 279.8164 15.10487281 65477
STARLINK-5246           
1 54198U 22141AT  24001.18922123  .00000661  00000+0  59603-4 0  9991
2 54198  53.2194 338.5758 0001777  73.9120 286.2067 15.08849646 65458
STARLINK-5244           
1 54199U 22141AU  24001.32907122  .00000594  00000+0  55419-4 0  9996
2 54199  53.2183 338.0223 0001455  89.7064 270.4095 15.08849342 65475
STARLINK-5250           
1 54200U 22141AV  24001.24809812 -.00001005  00000+0 -45022-4 0  9996
2 54200  53.2182 338.2322 0001400  80.3742 279.7408 15.08849761 65463
STARLINK-5199           
1 54201U 22141AW  24001.20396627  .00001364  00000+0  10377-3 0  9998
2 54201  53.2185 338.6578 0001565  98.9069 261.2100 15.08842896 65459
STARLINK-5205           
1 54202U 22141AX  24001.30697031  .00001432  00000+0  10807-3 0  9997
2 54202  53.2177 337.8869 0001397 104.4456 255.6691 15.08838643 65470
STARLINK-5247           
1 54203U 22141AY  24001.31802301  .00001239  00000+0  95942-4 0  9996
2 54203  53.2190 337.9545 0001562  84.3979 275.7191 15.08843148 65472
STARLINK-5241           
1 54204U 22141AZ  24001.16343680 -.00001009  00000+0 -45328-4 0  9990
2 54204  53.2188 338.4102 0001381  99.9375 260.1774 15.08840789 65457
STARLINK-5249           
1 54205U 22141BA  24001.30328991 -.00000697  00000+0 -25679-4 0  9994
2 54205  53.2186 337.8615 0001651  99.2628 260.8551 15.08845863 65472
STARLINK-5264           
1 54206U 22141BB  24001.24946625  .00000181  00000+0  29451-4 0  9996
2 54206  53.2180 303.2974 0001540 119.4745 240.6401 15.08859231 65951
STARLINK-5262           
1 54207U 22141BC  24001.29960004  .00000326  00000+0  38555-4 0  9995
2 54207  53.2173 337.8406 0001383  99.7099 260.4049 15.08840357 65478
STARLINK-5255           
1 54208U 22141BD  24001.27067374  .00001679  00000+0  12353-3 0  9991
2 54208  53.2183 313.4097 0001385 109.5229 250.5912 15.08838664 65818
STARLINK-5259           
1 54209U 22141BE  24001.30420459 -.00000525  00000+0 -14915-4 0  9991
2 54209  53.2195 327.8683 0001457  88.0401 272.0758 15.08849351 65615
BLUEWALKER 3 DEB        
1 54247U 22111AS  23365.89495362  .00009721  00000+0  37432-3 0  9994
2 54247  53.1871 243.0421 0009387 269.6390  90.3534 15.26986099 63308
STARLINK-5464           
1 54758U 22175A   24001.34520814 -.00000288  00000+0  83600-8 0  9993
2 54758  53.2193  23.2192 0001805 106.2367 253.8824 15.08840307 59464
STARLINK-5215           
1 54759U 22175B   24001.28265293 -.00000323  00000+0 -22130-5 0  9993
2 54759  53.2179  23.5380 0001481  93.3031 266.8131 15.08841809 59457
STARLINK-5220           
1 54760U 22175C   24001.47905981 -.00000292  00000+0 -22123-6 0  9999
2 54760  53.2190  27.6189 0001683  93.0617 267.0568 15.08852778 59415
STARLINK-5202           
1 54761U 22175D   24001.48275247  .00000902  00000+0  74745-4 0  9997
2 54761  53.2181  27.6394 0001657 100.8995 259.2183 15.08836727 59413
STARLINK-5214           
1 54762U 22175E   24001.33553358  .00000179  00000+0  29351-4 0  9993
2 54762  53.2176  28.1480 0001481  93.7746 266.3416 15.08844223 59394
STARLINK-5191           
1 54763U 22175F   24001.34290203  .00000364  00000+0  40950-4 0  9996
2 54763  53.2177  28.1938 0001621  90.5980 269.5198 15.08846221 59397
STARLINK-5458           
1 54764U 22175G   24001.25551633  .00000436  00000+0  45505-4 0  9995
2 54764  53.2182  28.3618 0001633  95.1542 264.9636 15.08840727 59389
STARLINK-5466           
1 54765U 22175H   24001.33921627  .00000122  00000+0  25799-4 0  9994
2 54765  53.2181  28.1695 0001845  99.1039 261.0162 15.08839283 59390
STARLINK-5471           
1 54766U 22175J   24001.46063827  .00001467  00000+0  11025-3 0  9997
2 54766  53.2178  27.5030 0001708 107.0887 253.0292 15.08847770 59419
STARLINK-5472           
1 54767U 22175K   24001.39071836  .00002013  00000+0  14452-3 0  9994
2 54767  53.2177  27.7795 0001687  75.7987 284.3192 15.08844492 59400
STARLINK-5444           
1 54768U 22175L   24001.29560202  .00001790  00000+0  13052-3 0  9990
2 54768  53.2188  13.6326 0001574 107.9533 252.1630 15.08841257 59593
STARLINK-5404           
1 54769U 22175M   24001.33185001  .00000647  00000+0  58764-4 0  9996
2 54769  53.2179  28.1242 0001755  99.7494 260.3696 15.08842405 59394
STARLINK-5448           
1 54770U 22175N   24001.40868991  .00001101  00000+0  87281-4 0  9994
2 54770  53.2186  12.9231 0001827  85.1265 274.9936 15.08840189 59618
STARLINK-5451           
1 54771U 22175P   24001.37459649 -.00000867  00000+0 -36382-4 0  9993
2 54771  53.2171  22.6926 0001686 112.1980 247.9191 15.08847919 59475
STARLINK-5452           
1 54772U 22175Q   24001.40500391  .00001041  00000+0  83493-4 0  9997
2 54772  53.2180  12.9014 0001731 111.9454 248.1722 15.08841588 59615
STARLINK-5453           
1 54773U 22175R   24001.44959979  .00001011  00000+0  81589-4 0  9993
2 54773  53.2185  27.4364 0001905 108.4935 251.6265 15.08841795 59417
STARLINK-5454           
1 54774U 22175S   24001.42701730  .00000710  00000+0  62686-4 0  9994
2 54774  53.2184  12.3416 0001594 100.7353 259.3818 15.08848979 59624
STARLINK-5465           
1 54775U 22175T   24001.37966856  .00001136  00000+0  89448-4 0  9999
2 54775  53.2179  27.7108 0001653  91.2409 268.8773 15.08839556 59401
STARLINK-5470           
1 54776U 22175U   24001.35755633  .00000114  00000+0  25261-4 0  9995
2 54776  53.2194  27.5760 0001871 105.7778 254.3420 15.08840193 59401
STARLINK-5468           
1 54777U 22175V   24001.50846103  .00000863  00000+0  72296-4 0  9997
2 54777  53.2180  27.0905 0001520  99.3967 260.7197 15.08840967 59425
STARLINK-5450           
1 54778U 22175W   24001.26515649 -.00000726  00000+0 -27546-4 0  9997
2 54778  53.2176  13.4470 0001624 107.4374 252.6796 15.08834496 59598
STARLINK-5447           
1 54779U 22175X   24001.40131935  .00000464  00000+0  47232-4 0  9997
2 54779  53.2178  12.8769 0001584 102.5634 257.5535 15.08840821 59612
STARLINK-5449           
1 54780U 22175Y   24001.25041661  .00000414  00000+0  44083-4 0  9994
2 54780  53.2175  13.3583 0001886  92.6696 267.4512 15.08840197 59591
STARLINK-5443           
1 54781U 22175Z   24001.26146959  .00000010  00000+0  18729-4 0  9992
2 54781  53.2184  13.4183 0001812  99.3726 260.7471 15.08838739 59595
STARLINK-5437           
1 54782U 22175AA  24001.29336749  .00047203  00000+0  17545-2 0  9992
2 54782  53.2241 326.3455 0004866 107.3663 252.7870 15.27089617 60264
STARLINK-5439           
1 54783U 22175AB  24001.32401994  .00002950  00000+0  20336-3 0  9995
2 54783  53.2192  13.1118 0001468  87.4022 272.7138 15.08838431 59609
STARLINK-5442           
1 54784U 22175AC  24001.50477792  .00000337  00000+0  39260-4 0  9999
2 54784  53.2178  27.0669 0001674 104.7631 255.3546 15.08836414 59426
STARLINK-5440           
1 54785U 22175AD  24001.23937141  .00000093  00000+0  23957-4 0  9994
2 54785  53.2188 333.3754 0001501  83.7875 276.3288 15.08842619 60153
STARLINK-5438           
1 54786U 22175AE  24001.41236779  .00001888  00000+0  13664-3 0  9990
2 54786  53.2182  12.9389 0001560  89.1682 270.9489 15.08848277 59611
STARLINK-5441           
1 54787U 22175AF  24001.43484838  .00002311  00000+0  16321-3 0  9999
2 54787  53.2173  27.3444 0001589  98.8626 261.2546 15.08847766 59417
STARLINK-5399           
1 54788U 22175AG  24001.31296529  .00003779  00000+0  25529-3 0  9994
2 54788  53.2186  13.0436 0001389  84.9173 275.1977 15.08852929 59606
STARLINK-5446           
1 54789U 22175AH  24001.37873611  .00000790  00000+0  67707-4 0  9999
2 54789  53.2203 357.6392 0002144  65.2883 294.8332 15.08847138 59828
STARLINK-5445           
1 54790U 22175AJ  24001.30559864 -.00000610  00000+0 -20218-4 0  9994
2 54790  53.2187  12.9940 0001714 102.7838 257.3346 15.08844871 59606
STARLINK-5425           
1 54791U 22175AK  24001.45281774 -.00001055  00000+0 -48210-4 0  9999
2 54791  53.2178  12.4923 0001659 102.8574 257.2603 15.08844671 59624
